     2              NAVIGATION DATA                         RINEX VERSION / TYPE
CCRINEXN V1.6.0 UX  CDDIS               26-MAY-26 16:53     PGM / RUN BY / DATE 
IGS BROADCAST EPHEMERIS FILE                                COMMENT             
    0.1583D-07  0.2235D-07 -0.1192D-06 -0.1192D-06          ION ALPHA           
    0.1147D+06  0.1475D+06 -0.1311D+06 -0.4588D+06          ION BETA            
    0.186264514923D-08 0.355271367880D-14   405504     2420 DELTA-UTC: A0,A1,T,W
    18                                                      LEAP SECONDS        
                                                            END OF HEADER       
32 26  5 26  4  0  0.0 0.741160474718D-04 0.206910044653D-10 0.000000000000D+00
    0.107000000000D+03 0.625000000000D+00 0.471626788006D-08-0.135259105170D+01
    0.307336449623D-06 0.937686674297D-02 0.582076609135D-05 0.515376152802D+04
    0.187200000000D+06 0.104308128357D-06-0.263922203403D+01 0.175088644028D-06
    0.968910094857D+00 0.270343750000D+03-0.197677435101D+01-0.814283918194D-08
    0.329299430929D-09 0.100000000000D+01 0.242000000000D+04 0.000000000000D+00
    0.200000000000D+01 0.000000000000D+00 0.931322574616D-09 0.107000000000D+03
    0.180018000000D+06 0.400000000000D+01 0.000000000000D+00 0.000000000000D+00
 3 26  5 26  5 59 44.0 0.448636710644D-03-0.163709046319D-10 0.000000000000D+00
    0.900000000000D+01-0.151562500000D+02 0.342799993281D-08 0.209467791323D+01
   -0.834465026855D-06 0.686240359210D-02 0.106245279312D-04 0.515358673286D+04
    0.194384000000D+06 0.800937414169D-07 0.262285586916D+01-0.949949026108D-07
    0.994567976594D+00 0.190687500000D+03 0.122774980384D+01-0.748388316234D-08
    0.365729519817D-09 0.100000000000D+01 0.242000000000D+04 0.000000000000D+00
    0.200000000000D+01 0.000000000000D+00 0.139698386192D-08 0.900000000000D+01
    0.188208000000D+06 0.400000000000D+01 0.000000000000D+00 0.000000000000D+00
29 26  5 26  5 59 44.0-0.313976779580D-03 0.750333128963D-11 0.000000000000D+00
    0.900000000000D+01 0.437187500000D+02 0.469162399640D-08-0.104929485102D+01
    0.219419598579D-05 0.359831983224D-02 0.395625829697D-05 0.515371475792D+04
    0.194384000000D+06-0.558793544769D-08 0.584351055081D+00-0.353902578354D-07
    0.960978252510D+00 0.302968750000D+03 0.280284785880D+01-0.833963309348D-08
    0.750031241812D-11 0.100000000000D+01 0.242000000000D+04 0.000000000000D+00
    0.200000000000D+01 0.000000000000D+00-0.977888700000D-08 0.900000000000D+01
    0.188580000000D+06 0.400000000000D+01 0.000000000000D+00 0.000000000000D+00
32 26  5 26  5 59 44.0 0.742645934224D-04 0.206910044653D-10 0.000000000000D+00
    0.200000000000D+01 0.240625000000D+01 0.468948104999D-08-0.304774401866D+00
    0.147148966789D-06 0.937710294966D-02 0.607594847679D-05 0.515376211739D+04
    0.194384000000D+06-0.521540641785D-07-0.263928139925D+01 0.108033418655D-06
    0.968911870840D+00 0.271718750000D+03-0.197679602999D+01-0.829284543030D-08
    0.348585948575D-09 0.100000000000D+01 0.242000000000D+04 0.000000000000D+00
    0.200000000000D+01 0.000000000000D+00 0.931322574616D-09 0.200000000000D+01
    0.187219000000D+06 0.400000000000D+01 0.000000000000D+00 0.000000000000D+00
 1 26  5 26  6  0  0.0 0.264981761575D-03-0.101181285572D-10 0.000000000000D+00
    0.208000000000D+03-0.663437500000D+02 0.441482675240D-08-0.215037592242D+01
   -0.335648655891D-05 0.176087114960D-02 0.697933137417D-05 0.515361363220D+04
    0.194400000000D+06-0.167638063431D-07 0.163255697718D+01 0.540167093277D-07
    0.957169123970D+00 0.243000000000D+03 0.204870446179D+00-0.815212528303D-08
   -0.277868717205D-09 0.100000000000D+01 0.242000000000D+04 0.000000000000D+00
    0.200000000000D+01 0.000000000000D+00-0.884756445885D-08 0.976000000000D+03
    0.187218000000D+06 0.400000000000D+01 0.000000000000D+00 0.000000000000D+00
 3 26  5 26  6  0  0.0 0.448636244982D-03-0.163709046319D-10 0.000000000000D+00
    0.900000000000D+02-0.151562500000D+02 0.342799993281D-08 0.209701189808D+01
   -0.834465026855D-06 0.686240429059D-02 0.106245279312D-04 0.515358672905D+04
    0.194400000000D+06 0.800937414169D-07 0.262285575505D+01-0.949949026108D-07
    0.994567975131D+00 0.190687500000D+03 0.122774966340D+01-0.748388316234D-08
    0.365729519817D-09 0.100000000000D+01 0.242000000000D+04 0.000000000000D+00
    0.200000000000D+01 0.000000000000D+00 0.139698386192D-08 0.900000000000D+02
    0.187218000000D+06 0.400000000000D+01 0.000000000000D+00 0.000000000000D+00
 4 26  5 26  6  0  0.0 0.581908971071D-04 0.113686837722D-11 0.000000000000D+00
    0.000000000000D+00 0.178125000000D+01 0.456304721209D-08-0.123607992417D+01
   -0.335276126862D-07 0.373925047461D-02 0.570714473724D-05 0.515369201851D+04
    0.194400000000D+06 0.391155481338D-07-0.259176900919D+01-0.391155481338D-07
    0.971638271765D+00 0.271343750000D+03-0.288119419369D+01-0.811212361680D-08
    0.357157734196D-09 0.100000000000D+01 0.242000000000D+04 0.000000000000D+00
    0.200000000000D+01 0.000000000000D+00-0.465661287308D-08 0.768000000000D+03
    0.187218000000D+06 0.400000000000D+01 0.000000000000D+00 0.000000000000D+00
 5 26  5 26  6  0  0.0-0.233408529311D-03-0.454747350886D-12 0.000000000000D+00
    0.800000000000D+02-0.262812500000D+02 0.376694262257D-08-0.610532171413D+00
   -0.122934579849D-05 0.557805201970D-02 0.101737678051D-04 0.515374906158D+04
    0.194400000000D+06-0.353902578354D-07 0.256202066953D+01 0.577419996262D-07
    0.980988821345D+00 0.195093750000D+03 0.143983836097D+01-0.774460830831D-08
    0.296083761649D-09 0.100000000000D+01 0.242000000000D+04 0.000000000000D+00
    0.200000000000D+01 0.000000000000D+00-0.107102100000D-07 0.800000000000D+02
    0.187230000000D+06 0.400000000000D+01 0.000000000000D+00 0.000000000000D+00
 6 26  5 26  6  0  0.0-0.599366147071D-03 0.443378667114D-11 0.000000000000D+00
    0.120000000000D+02-0.717500000000D+02 0.389766235328D-08-0.291536123499D+01
   -0.372715294361D-05 0.370931811631D-02 0.653229653835D-05 0.515368802071D+04
    0.194400000000D+06 0.651925802231D-07 0.158542867334D+01 0.372529029846D-07
    0.985949520961D+00 0.269250000000D+03-0.524557782280D+00-0.788639992878D-08
   -0.372515516766D-09 0.100000000000D+01 0.242000000000D+04 0.000000000000D+00
    0.200000000000D+01 0.000000000000D+00 0.372529029846D-08 0.120000000000D+02
    0.187218000000D+06 0.400000000000D+01 0.000000000000D+00 0.000000000000D+00
 7 26  5 26  6  0  0.0-0.188849866390D-03-0.420641299570D-11 0.000000000000D+00
    0.980000000000D+02-0.513125000000D+02 0.488341769966D-08 0.255765077816D+01
   -0.277720391750D-05 0.208772873739D-01 0.835210084915D-05 0.515359973526D+04
    0.194400000000D+06 0.167638063431D-06-0.158366903598D+01-0.271946191788D-06
    0.950621522505D+00 0.210968750000D+03-0.196575914987D+01-0.782854037584D-08
   -0.374301305437D-09 0.100000000000D+01 0.242000000000D+04 0.000000000000D+00
    0.200000000000D+01 0.000000000000D+00-0.107102096081D-07 0.980000000000D+02
    0.187638000000D+06 0.400000000000D+01 0.000000000000D+00 0.000000000000D+00
 8 26  5 26  6  0  0.0 0.435359776020D-03-0.784439180279D-11 0.000000000000D+00
    0.630000000000D+02 0.535625000000D+02 0.512449917025D-08-0.946092873800D+00
    0.286102294922D-05 0.116093502147D-01 0.387243926525D-05 0.515372418976D+04
    0.194400000000D+06 0.290572643280D-06 0.461435718387D+00 0.931322574616D-08
    0.942733735936D+00 0.295781250000D+03 0.541579928395D+00-0.859107213835D-08
   -0.214294640518D-10 0.100000000000D+01 0.242000000000D+04 0.000000000000D+00
    0.200000000000D+01 0.000000000000D+00 0.465661287308D-08 0.630000000000D+02
    0.193999000000D+06 0.400000000000D+01 0.000000000000D+00 0.000000000000D+00
 9 26  5 26  6  0  0.0 0.745574943721D-03-0.477484718431D-11 0.000000000000D+00
    0.550000000000D+02 0.850000000000D+01 0.470805325217D-08-0.335829019118D+00
    0.171363353729D-06 0.345480162650D-02 0.597722828388D-05 0.515372385788D+04
    0.194400000000D+06-0.447034835815D-07-0.265656289440D+01-0.260770320892D-07
    0.965927684731D+00 0.266750000000D+03 0.203679140346D+01-0.822855703814D-08
    0.379301513716D-09 0.100000000000D+01 0.242000000000D+04 0.000000000000D+00
    0.200000000000D+01 0.000000000000D+00 0.465661287308D-09 0.550000000000D+02
    0.187218000000D+06 0.400000000000D+01 0.000000000000D+00 0.000000000000D+00
11 26  5 26  6  0  0.0-0.327949412167D-03 0.125055521494D-10 0.000000000000D+00
    0.550000000000D+02-0.704687500000D+02 0.436911056242D-08-0.169271250653D+01
   -0.361725687981D-05 0.229742028750D-02 0.640004873276D-05 0.515361742973D+04
    0.194400000000D+06 0.894069671631D-07 0.160236071833D+01-0.160187482834D-06
    0.962848164639D+00 0.261312500000D+03-0.235516647571D+01-0.808033657845D-08
   -0.340728478423D-09 0.100000000000D+01 0.242000000000D+04 0.000000000000D+00
    0.200000000000D+01 0.000000000000D+00-0.884756445885D-08 0.550000000000D+02
    0.190638000000D+06 0.400000000000D+01 0.000000000000D+00 0.000000000000D+00
12 26  5 26  6  0  0.0-0.607432797551D-03 0.227373675443D-12 0.000000000000D+00
    0.740000000000D+02 0.555625000000D+02 0.446375736198D-08 0.181529284962D+01
    0.266171991825D-05 0.878111354541D-02 0.100266188383D-04 0.515373307419D+04
    0.194400000000D+06 0.577419996262D-07-0.465213634107D+00-0.204890966415D-06
    0.959077124635D+00 0.180625000000D+03 0.158048213916D+01-0.785782731005D-08
   -0.332156692802D-10 0.100000000000D+01 0.242000000000D+04 0.000000000000D+00
    0.200000000000D+01 0.000000000000D+00-0.125728500000D-07 0.740000000000D+02
    0.187260000000D+06 0.400000000000D+01 0.000000000000D+00 0.000000000000D+00
